satname,norad_id,inclination_deg,eccentricity,mean_motion_rev_per_day,perigee_km,apogee_km,l1,l2
STARLINK-1470,45772,53.0527,0.0007699,15.21100901,497.2212642033737,507.81609782099713,1 45772U 20038AU  25350.27930051  .00027756  00000+0  12414-2 0  9990,2 45772  53.0527 199.3432 0007699  89.2385 270.9493 15.21100901304355
STARLINK-1482,45773,53.0534,0.0001386,15.06390415,546.2810773567962,548.2007921203067,1 45773U 20038AV  25350.32071472  .00000565  00000+0  56808-4 0  9996,2 45773  53.0534 210.8734 0001386  91.2412 268.8736 15.06390415304191
STARLINK-1496,45780,53.0527,0.0001405,15.06395254,546.2530902668359,548.1991172990001,1 45780U 20038BC  25350.02214798 -.00001838  00000+0 -10457-3 0  9996,2 45780  53.0527 212.2127 0001405  88.8132 271.3018 15.06395254304138
STARLINK-1497,45781,53.0328,0.0002764,15.68636525,360.9371815708273,364.663571752646,1 45781U 20038BD  25350.33337963  .00263345  00000+0  22052-2 0  9995,2 45781  53.0328 138.2456 0002764 121.7014 219.3629 15.68636525  5893
STARLINK-1510,45784,53.0213,0.0005421,15.94207821,286.9075429958939,294.1377037595603,1 45784U 20038BG  25350.33337963  .00453730  92872-4  11961-2 0  9997,2 45784  53.0213 107.8243 0005421 315.7121 244.3715 15.94207821  6013
STARLINK-1513,45786,53.0532,0.0001491,15.06395258,546.193519886483,548.2586631603754,1 45786U 20038BJ  25350.31703743  .00002035  00000+0  15550-3 0  9994,2 45786  53.0532 210.8930 0001491  96.7921 263.3237 15.06395258304199
STARLINK-1522,46027,53.0554,0.000156,15.06394636,546.1476409348352,548.3083548141722,1 46027U 20055A   25349.43517208 -.00001784  00000+0 -10091-3 0  9999,2 46027  53.0554 144.8497 0001560 104.0786 256.0376 15.06394636296186
STARLINK-1523,46028,53.0556,0.0001107,15.06394841,546.4607317396576,547.9940074110827,1 46028U 20055B   25349.84798807 -.00002373  00000+0 -14051-3 0  9996,2 46028  53.0556 143.0003 0001107 106.8068 253.3043 15.06394841296261
STARLINK-1526,46029,53.0536,0.0001268,15.06398069,546.3393412339055,548.0956111290652,1 46029U 20055C   25349.84062051  .00001428  00000+0  11473-3 0  9995,2 46029  53.0536 143.0291 0001268 100.9594 259.1538 15.06398069296254
STARLINK-1555,46032,53.0547,0.0001501,15.06395364,546.1862696957378,548.265263598285,1 46032U 20055F   25350.15761767  .00001171  00000+0  97511-4 0  9998,2 46032  53.0547 141.6059 0001501  95.6392 264.4769 15.06395364296308
STARLINK-1556,46033,53.0537,0.0001004,15.06396055,546.5283426123387,547.9189550306219,1 46033U 20055G   25350.13918290  .00000587  00000+0  58307-4 0  9992,2 46033  53.0537 141.6899 0001004  87.3042 272.8062 15.06396055296271
STARLINK-1557,46034,53.0542,0.0001308,15.06395786,546.318635990754,548.130310552162,1 46034U 20055H   25349.81113721  .00000557  00000+0  56287-4 0  9994,2 46034  53.0542 143.1609 0001308  86.6791 273.4348 15.06395786296223
STARLINK-1558,46035,53.0551,0.0001298,15.0639462,546.329134529401,548.1269592955796,1 46035U 20055J   25349.75215908  .00000523  00000+0  54006-4 0  9998,2 46035  53.0551 143.4302 0001298  97.2547 262.8589 15.06394620296249
STARLINK-1560,46036,53.0549,0.0001331,15.06386421,546.331406497754,548.1749453625862,1 46036U 20055K   25350.13550831 -.00000341  00000+0 -40169-5 0  9996,2 46036  53.0549 141.7096 0001331  80.3062 279.8078 15.06386421296309
STARLINK-1567,46038,53.0539,0.0001325,15.06377782,546.3620360386376,548.1972714518806,1 46038U 20055M   25349.74847840  .00002165  00000+0  16428-3 0  9995,2 46038  53.0539 143.4444 0001325  81.2889 278.8250 15.06377782296239
STARLINK-1569,46039,53.0547,0.0001443,15.06413621,546.1704900766708,548.1691336225713,1 46039U 20055N   25350.15392083 -.00002999  00000+0 -18244-3 0  9992,2 46039  53.0547 141.6251 0001443  82.0472 278.0680 15.06413621296291
STARLINK-1582,46043,53.0537,0.0001244,15.06378965,546.4145065532102,548.1375493145606,1 46043U 20055S   25349.89591226  .00001009  00000+0  86685-4 0  9990,2 46043  53.0537 142.7816 0001244  87.4381 272.6751 15.06378965296257
STARLINK-1591,46045,53.0545,0.0001448,15.06389396,546.2412626844907,548.2468530388469,1 46045U 20055U   25349.72266801  .00001755  00000+0  13674-3 0  9997,2 46045  53.0545 143.5600 0001448  92.1836 267.9319 15.06389396296215
STARLINK-1524,46047,53.054,0.0001327,15.0638709,546.3321265072245,548.1701245157346,1 46047U 20055W   25350.14011033  .00002662  00000+0  19757-3 0  9998,2 46047  53.0540 131.6863 0001327  91.5386 268.5755 15.06387090296434
STARLINK-1527,46048,53.0539,0.0001523,15.0640374,546.1453665610225,548.2548242402818,1 46048U 20055X   25350.13641548  .00000100  00000+0  25578-4 0  9992,2 46048  53.0539 131.7022 0001523  78.5995 281.5165 15.06403740296419
STARLINK-1540,46051,53.055,0.0001187,15.06394206,546.4072747890241,548.0513567523885,1 46051U 20055AA  25349.37342713  .00000261  00000+0  36412-4 0  9999,2 46051  53.0550 135.1293 0001187  92.0804 268.0321 15.06394206296331
STARLINK-1541,46052,53.0548,0.000122,15.06407452,546.3438289880305,548.0336084633982,1 46052U 20055AB  25349.82310727  .00000325  00000+0  40686-4 0  9999,2 46052  53.0548 133.1071 0001220  90.4364 269.6765 15.06407452296362
STARLINK-1543,46053,53.055,0.0001272,15.06405731,546.3130912020306,548.0748954067276,1 46053U 20055AC  25350.09217876 -.00000045  00000+0  15859-4 0  9996,2 46053  53.0550 131.9004 0001272  88.4388 271.6747 15.06405731296437
STARLINK-1548,46054,53.0547,0.0001279,15.06397357,546.3339052478541,548.105411481064,1 46054U 20055AD  25350.09955247 -.00000180  00000+0  67875-5 0  9994,2 46054  53.0547 131.8683 0001279  92.1887 267.9248 15.06397357296437
STARLINK-1554,46055,53.0528,0.000176,15.0639827,545.9979978648007,548.43572242357,1 46055U 20055AE  25348.82422246  .00004188  00000+0  29989-3 0  9994,2 46055  53.0528 137.5925 0001760  94.4920 265.6270 15.06398270296241
STARLINK-1564,46058,53.0556,0.0001263,15.06391266,546.3636516159459,548.1130014234259,1 46058U 20055AH  25350.36131452  .00000827  00000+0  74392-4 0  9990,2 46058  53.0556 131.1547 0001263  91.8953 268.2181 15.06391266296462
STARLINK-1570,46059,53.0546,0.0001165,15.06396556,546.4153089856591,548.0289176590641,1 46059U 20055AJ  25349.72727799  .00000195  00000+0  32006-4 0  9998,2 46059  53.0546 133.5431 0001165  91.6113 268.5009 15.06396556296332
STARLINK-1572,46060,53.0532,0.0001253,15.06404736,546.3292984628497,548.0647871739811,1 46060U 20055AK  25350.12166685 -.00000201  00000+0  53968-5 0  9997,2 46060  53.0532 131.7676 0001253  88.9775 271.1358 15.06404736296406
